[{"OBJECT_NAME":"HAIYANG-2D","OBJECT_ID":"2021-043A","EPOCH":"2026-03-09T23:01:37.583328","MEAN_MOTION":13.8337425,"ECCENTRICITY":0.00105603,"INCLINATION":65.9986,"RA_OF_ASC_NODE":191.7425,"ARG_OF_PERICENTER":278.687,"MEAN_ANOMALY":81.3002,"EPHEMERIS_TYPE":0,"CLASSIFICATION_TYPE":"U","NORAD_CAT_ID":48621,"ELEMENT_SET_NO":999,"REV_AT_EPOCH":24282,"BSTAR":4.3398589e-5,"MEAN_MOTION_DOT":-3.3e-7,"MEAN_MOTION_DDOT":0},{"OBJECT_NAME":"COSMOS 1295","OBJECT_ID":"1981-077A","EPOCH":"2026-03-09T21:23:44.381760","MEAN_MOTION":13.76636848,"ECCENTRICITY":0.00438893,"INCLINATION":82.9209,"RA_OF_ASC_NODE":194.6742,"ARG_OF_PERICENTER":190.0646,"MEAN_ANOMALY":289.2487,"EPHEMERIS_TYPE":0,"CLASSIFICATION_TYPE":"U","NORAD_CAT_ID":12681,"ELEMENT_SET_NO":999,"REV_AT_EPOCH":23858,"BSTAR":8.3782523e-5,"MEAN_MOTION_DOT":9.8e-7,"MEAN_MOTION_DDOT":0}]
